CELESTIS-02 & TAURUS R/B
1 25160U 98007D   24165.33622116  .00000142  00000+0  12014-3 0  9997
2 25160 107.9998 291.3638 0063571 306.1021 126.2611 14.21999794366173
